0 GORIZONT 19
1 20263U 89081A   13281.68141780 -.00000374  00000-0  10000-3 0  5152
2 20263 014.4239 016.0011 0005700 136.5322 223.5161 01.00287970 88023
0 GORIZONT 19
1 20263U 89081A   13287.66401418 -.00000385  00000-0  10000-3 0  5166
2 20263 014.4295 015.9371 0005718 138.2458 221.7537 01.00283506 88084
0 GORIZONT 19
1 20263U 89081A   13293.64696335 -.00000381  00000-0  10000-3 0  5172
2 20263 014.4348 015.8708 0005615 150.1589 209.8822 01.00281136 88148
0 GORIZONT 19
1 20263U 89081A   13294.64404245 -.00000379  00000-0  10000-3 0  5188
2 20263 014.4349 015.8616 0005366 140.6214 219.4104 01.00280792 88157
